ONEWEB-0043             
1 45149U 20008U   23258.49863563 -.00009080  00000+0 -26058-1 0  9997
2 45149  87.8825 235.9853 0001887 103.2734 256.8604 13.10415036176472
ONEWEB-0044             
1 45150U 20008V   23258.45153411 -.00003057  00000+0 -87937-2 0  9991
2 45150  87.8831 235.9933 0001887  97.2381 262.8961 13.10387555176769
ONEWEB-0045             
1 45151U 20008W   23258.41784162 -.00000576  00000+0 -16616-2 0  9990
2 45151  87.8923 220.8335 0002766  80.9142 279.2299 13.11425674178586
ONEWEB-0047             
1 45152U 20008X   23258.44343836  .00014372  00000+0  41115-1 0  9991
2 45152  87.8835 235.9959 0003181  87.5702 272.5790 13.10298636176489
ONEWEB-0048             
1 45153U 20008Y   23258.43852726 -.00012386  00000+0 -35535-1 0  9998
2 45153  87.8834 236.0065 0002154  81.3907 278.7465 13.10430267176099
ONEWEB-0049             
1 45154U 20008Z   23258.44017936  .00007152  00000+0  20447-1 0  9995
2 45154  87.8839 235.9758 0002681  89.1919 270.9516 13.10333545176313
ONEWEB-0051             
1 45155U 20008AA  23258.41572434  .00000059  00000+0  13072-3 0  9999
2 45155  87.8939 220.8665 0002280  78.2371 281.9012 13.11419703179263
ONEWEB-0052             
1 45156U 20008AB  23258.66599206 -.00000878  00000+0 -25512-2 0  9995
2 45156  87.8838 235.9143 0001204  98.3989 261.7275 13.10371193177010
